0 INTELSAT 10 (PAS 10)
1 26766U 01019A   13282.00945590  .00000114  00000-0  10000-3 0  3473
2 26766 000.0070 247.4568 0001915 306.3240 234.9351 01.00270481 45465
0 INTELSAT 10 (PAS 10)
1 26766U 01019A   13283.01055359  .00000111  00000-0  10000-3 0  3488
2 26766 000.0048 243.9887 0001943 308.7548 237.3495 01.00270884 45477
0 INTELSAT 10 (PAS 10)
1 26766U 01019A   13284.03332091  .00000108  00000-0  10000-3 0  3499
2 26766 000.0025 240.6619 0002003 312.7080 245.9217 01.00271178 45488
0 INTELSAT 10 (PAS 10)
1 26766U 01019A   13285.68925488  .00000103  00000-0  10000-3 0  3506
2 26766 000.0009 047.3186 0002046 147.6179 122.1193 01.00271835 45492
0 INTELSAT 10 (PAS 10)
1 26766U 01019A   13287.85041302  .00000101  00000-0  10000-3 0  3510
2 26766 000.0053 071.3777 0002059 123.2642 182.5630 01.00272744 45523
0 INTELSAT 10 (PAS 10)
1 26766U 01019A   13290.10078992  .00000104  00000-0  10000-3 0  3521
2 26766 000.0334 216.2234 0002523 354.3830 258.9519 01.00273282 45549
0 INTELSAT 10 (PAS 10)
1 26766U 01019A   13290.40782896  .00000000  00000-0  10000-3 0  3524
2 26766 000.0013 253.8197 0002306 309.0037 017.5830 01.00270577 45160
0 INTELSAT 10 (PAS 10)
1 26766U 01019A   13290.92259318  .00000105  00000-0  10000-3 0  3536
2 26766 000.0067 009.9330 0002505 199.0675 197.2226 01.00273766 45555
0 INTELSAT 10 (PAS 10)
1 26766U 01019A   13292.89813947  .00000109  00000-0  10000-3 0  3543
2 26766 000.0130 257.4540 0002612 322.4170 179.4998 01.00273930 45573
0 INTELSAT 10 (PAS 10)
1 26766U 01019A   13294.03890270  .00000111  00000-0  10000-3 0  3559
2 26766 000.0103 260.2521 0002582 318.8120 232.1157 01.00274477 45586
0 INTELSAT 10 (PAS 10)
1 26766U 01019A   13295.62722250  .00000114  00000-0  10000-3 0  3561
2 26766 000.0071 257.1870 0002589 328.2778 079.0788 01.00274416 45595
